NORAD_CAT_ID,OBJECT_NAME,OBJECT_TYPE,EPOCH,MEAN_MOTION,ECCENTRICITY,INCLINATION,RA_OF_ASC_NODE,ARG_OF_PERICENTER,MEAN_ANOMALY,BSTAR,MEAN_MOTION_DOT,MEAN_MOTION_DDOT,TLE_LINE0,TLE_LINE1,TLE_LINE2,SEMIMAJOR_AXIS,PERIOD,APOGEE,PERIGEE,DECAYED
54167.0,STARLINK-5243,PAYLOAD,2024-08-06 01:13:24,15.08825367,0.0001385,53.2148,100.4903,76.1372,283.9774,0.0011356,0.00017824,0.0,0 STARLINK-5243,1 54167U 22141L   24219.05097713  .00017824  00000-0  11356-2 0  9993,2 54167  53.2148 100.4903 0001385  76.1372 283.9774 15.08825367 98066,6917.925,95.438,540.748,538.832,0.0
54167.0,STARLINK-5243,PAYLOAD,2024-08-06 20:18:02,15.08845367,0.0001544,53.2152,96.922,75.5905,284.5258,0.00095471,0.00014941,0.0,0 STARLINK-5243,1 54167U 22141L   24219.84586007  .00014941  00000-0  95471-3 0  9997,2 54167  53.2152  96.9220 0001544  75.5905 284.5258 15.08845367 98183,6917.864,95.437,540.797,538.661,0.0
54167.0,STARLINK-5243,PAYLOAD,2024-08-07 01:04:11,15.08855089,0.0001558,53.2152,96.0293,75.3189,284.7976,0.0010469,0.0001642,0.0,0 STARLINK-5243,1 54167U 22141L   24220.04457792  .00016420  00000-0  10469-2 0  9996,2 54167  53.2152  96.0293 0001558  75.3189 284.7976 15.08855089 98205,6917.834,95.437,540.777,538.621,0.0
54167.0,STARLINK-5243,PAYLOAD,2024-08-07 20:08:48,15.08853607,0.0001142,53.2145,92.4561,115.6209,244.4902,0.00044803,6.852e-05,0.0,0 STARLINK-5243,1 54167U 22141L   24220.83945223  .00006852  00000-0  44803-3 0  9992,2 54167  53.2145  92.4561 0001142 115.6209 244.4902 15.08853607 98324,6917.839,95.437,540.494,538.914,0.0
54167.0,STARLINK-5243,PAYLOAD,2024-08-08 00:54:58,15.08867676,0.0001638,53.2152,91.5685,77.4603,282.6572,0.0010358,0.00016248,0.0,0 STARLINK-5243,1 54167U 22141L   24221.03817221  .00016248  00000-0  10358-2 0  9998,2 54167  53.2152  91.5685 0001638  77.4603 282.6572 15.08867676 98364,6917.796,95.436,540.794,538.528,0.0
54167.0,STARLINK-5243,PAYLOAD,2024-08-08 19:59:35,15.08851299,0.0001251,53.2145,87.9995,89.5644,270.5491,0.00088317,0.000138,0.0,0 STARLINK-5243,1 54167U 22141L   24221.83305275  .00013800  00000-0  88317-3 0  9999,2 54167  53.2145  87.9995 0001251  89.5644 270.5491 15.08851299 98471,6917.846,95.437,540.576,538.845,0.0
54167.0,STARLINK-5243,PAYLOAD,2024-08-08 21:34:58,15.08853741,0.0001262,53.2149,87.7005,86.4483,273.6653,0.0011633,0.00018281,0.0,0 STARLINK-5243,1 54167U 22141L   24221.89929269  .00018281  00000-0  11633-2 0  9994,2 54167  53.2149  87.7005 0001262  86.4483 273.6653 15.08853741 98494,6917.838,95.437,540.576,538.83,0.0
54167.0,STARLINK-5243,PAYLOAD,2024-08-09 08:42:41,15.08846529,0.0001858,53.2134,85.6254,50.5523,309.5634,0.00056504,8.718e-05,0.0,0 STARLINK-5243,1 54167U 22141L   24222.36297605  .00008718  00000-0  56504-3 0  9990,2 54167  53.2134  85.6254 0001858  50.5523 309.5634 15.08846529 98550,6917.86,95.437,541.011,538.44,0.0
54167.0,STARLINK-5243,PAYLOAD,2024-08-09 19:50:22,15.08840543,0.0001568,53.2165,83.5365,118.3096,241.8055,0.00038388,5.827e-05,0.0,0 STARLINK-5243,1 54167U 22141L   24222.82665459  .00005827  00000-0  38388-3 0  9995,2 54167  53.2165  83.5365 0001568 118.3096 241.8055 15.08840543 98623,6917.879,95.438,540.828,538.659,0.0
54167.0,STARLINK-5243,PAYLOAD,2024-08-09 21:25:46,15.08841278,0.0001526,53.2167,83.2395,117.7666,242.3481,0.00044375,6.782e-05,0.0,0 STARLINK-5243,1 54167U 22141L   24222.89289493  .00006782  00000-0  44375-3 0  9996,2 54167  53.2167  83.2395 0001526 117.7666 242.3481 15.08841278 98642,6917.876,95.437,540.797,538.686,0.0
54167.0,STARLINK-5243,PAYLOAD,2024-08-10 19:41:10,15.08844485,0.0001462,53.2168,79.0802,87.2446,272.8714,0.00029743,4.449e-05,0.0,0 STARLINK-5243,1 54167U 22141L   24223.82025957  .00004449  00000-0  29743-3 0  9993,2 54167  53.2168  79.0802 0001462  87.2446 272.8714 15.08844485 98779,6917.867,95.437,540.743,538.72,0.0
54167.0,STARLINK-5243,PAYLOAD,2024-08-10 21:16:33,15.08850551,0.0001479,53.2168,78.7785,96.9559,263.1602,0.00045536,6.969e-05,0.0,0 STARLINK-5243,1 54167U 22141L   24223.88649718  .00006969  00000-0  45536-3 0  9993,2 54167  53.2168  78.7785 0001479  96.9559 263.1602 15.08850551 98797,6917.848,95.437,540.736,538.69,0.0
54167.0,STARLINK-5243,PAYLOAD,2024-08-11 21:07:20,15.08858924,0.0002481,53.2172,74.3218,90.651,269.4767,0.00053203,8.194e-05,0.0,0 STARLINK-5243,1 54167U 22141L   24224.88009573  .00008194  00000-0  53203-3 0  9995,2 54167  53.2172  74.3218 0002481  90.6510 269.4767 15.08858924 98936,6917.823,95.436,541.404,537.971,0.0
54167.0,STARLINK-5243,PAYLOAD,2024-08-12 13:01:11,15.08846747,0.0001942,53.2156,71.342,70.9801,289.1402,0.00027241,4.051e-05,0.0,0 STARLINK-5243,1 54167U 22141L   24225.54249762  .00004051  00000-0  27241-3 0  9996,2 54167  53.2156  71.3420 0001942  70.9801 289.1402 15.08846747 99032,6917.86,95.437,541.068,538.381,0.0
54167.0,STARLINK-5243,PAYLOAD,2024-08-13 00:08:52,15.08876587,0.0002509,53.2165,69.2644,80.0399,280.0877,0.0010091,0.00015825,0.0,0 STARLINK-5243,1 54167U 22141L   24226.00616636  .00015825  00000-0  10091-2 0  9991,2 54167  53.2165  69.2644 0002509  80.0399 280.0877 15.08876587 99109,6917.769,95.435,541.369,537.898,0.0
54167.0,STARLINK-5243,PAYLOAD,2024-08-13 06:30:26,15.08817639,0.0002902,53.2181,68.0737,80.4706,279.6614,-0.00080544,-0.00013077,0.0,0 STARLINK-5243,1 54167U 22141L   24226.27113866 -.00013077  00000-0 -80544-3 0  9997,2 54167  53.2181  68.0737 0002902  80.4706 279.6614 15.08817639 99140,6917.949,95.439,541.821,537.806,0.0
54167.0,STARLINK-5243,PAYLOAD,2024-08-13 22:24:19,15.08791477,0.0001562,53.2181,65.1059,99.595,260.5219,-0.00072916,-0.00011858,0.0,0 STARLINK-5243,1 54167U 22141L   24226.93355479 -.00011858  00000-0 -72916-3 0  9997,2 54167  53.2181  65.1059 0001562  99.5950 260.5219 15.08791477 99251,6918.029,95.441,540.974,538.813,0.0
54167.0,STARLINK-5243,PAYLOAD,2024-08-14 06:21:15,15.0882047,0.0002103,53.2135,63.6105,85.1563,274.9669,0.00031708,4.759e-05,0.0,0 STARLINK-5243,1 54167U 22141L   24227.26476207  .00004759  00000-0  31708-3 0  9991,2 54167  53.2135  63.6105 0002103  85.1563 274.9669 15.08820470 99296,6917.94,95.439,541.26,538.35,0.0
54167.0,STARLINK-5243,PAYLOAD,2024-08-14 19:04:20,15.08841502,0.0001965,53.2141,61.2362,85.121,275.0007,0.00064599,0.00010008,0.0,0 STARLINK-5243,1 54167U 22141L   24227.79467810  .00010008  00000-0  64599-3 0  9997,2 54167  53.2141  61.2362 0001965  85.1210 275.0007 15.08841502 99372,6917.876,95.437,541.1,538.381,0.0
54167.0,STARLINK-5243,PAYLOAD,2024-08-14 20:39:43,15.08845918,0.0001679,53.2157,60.9374,92.0691,268.0493,0.00077758,0.00012111,0.0,0 STARLINK-5243,1 54167U 22141L   24227.86091693  .00012111  00000-0  77758-3 0  9995,2 54167  53.2157  60.9374 0001679  92.0691 268.0493 15.08845918 99398,6917.862,95.437,540.889,538.566,0.0
54167.0,STARLINK-5243,PAYLOAD,2024-08-15 06:12:02,15.08851687,0.000193,53.2158,59.156,83.2013,276.9199,0.00078831,0.00012284,0.0,0 STARLINK-5243,1 54167U 22141L   24228.25835678  .00012284  00000-0  78831-3 0  9992,2 54167  53.2158  59.1560 0001930  83.2013 276.9199 15.08851687 99454,6917.845,95.437,541.045,538.375,0.0
54167.0,STARLINK-5243,PAYLOAD,2024-08-15 20:30:29,15.08853708,0.0001887,53.2161,56.4801,83.1799,276.9408,0.00051756,7.962e-05,0.0,0 STARLINK-5243,1 54167U 22141L   24228.85451148  .00007962  00000-0  51756-3 0  9998,2 54167  53.2161  56.4801 0001887  83.1799 276.9408 15.08853708 99546,6917.838,95.437,541.009,538.398,0.0
54167.0,STARLINK-5243,PAYLOAD,2024-08-17 12:15:07,15.08841696,0.0001817,53.2171,49.0423,88.8357,271.2844,-2.4739e-05,-6.82e-06,0.0,0 STARLINK-5243,1 54167U 22141L   24230.51050727 -.00000682  00000-0 -24739-4 0  9998,2 54167  53.2171  49.0423 0001817  88.8357 271.2844 15.08841696 99781,6917.875,95.437,540.997,538.483,0.0
54167.0,STARLINK-5243,PAYLOAD,2024-08-18 16:52:04,15.08846147,0.0001332,53.2166,43.696,76.6255,283.4885,8.6383e-05,1.087e-05,0.0,0 STARLINK-5243,1 54167U 22141L   24231.70282457  .00001087  00000-0  86383-4 0  9998,2 54167  53.2166  43.6960 0001332  76.6255 283.4885 15.08846147 99961,6917.862,95.437,540.648,538.805,0.0
54167.0,STARLINK-5243,PAYLOAD,2024-08-19 11:56:42,15.08831225,0.000161,53.2185,40.1269,103.4523,256.6649,0.00014266,1.983e-05,0.0,0 STARLINK-5243,1 54167U 22141L   24232.49771088  .00001983  00000-0  14266-3 0  9993,2 54167  53.2185  40.1269 0001610 103.4523 256.6649 15.08831225100089,6917.907,95.438,540.886,538.658,0.0
54167.0,STARLINK-5243,PAYLOAD,2024-08-19 19:53:37,15.08842139,0.0001597,53.2179,38.6337,86.4842,273.6333,9.9694e-05,1.299e-05,0.0,0 STARLINK-5243,1 54167U 22141L   24232.82890559  .00001299  00000-0  99694-4 0  9994,2 54167  53.2179  38.6337 0001597  86.4842 273.6333 15.08842139100139,6917.874,95.437,540.844,538.634,0.0
54167.0,STARLINK-5243,PAYLOAD,2024-08-20 14:58:15,15.08841021,0.000144,53.2181,35.0674,98.2757,261.8398,1.0085e-05,-1.27e-06,0.0,0 STARLINK-5243,1 54167U 22141L   24233.62378993 -.00000127  00000-0  10085-4 0  9993,2 54167  53.2181  35.0674 0001440  98.2757 261.8398 15.08841021100263,6917.877,95.437,540.738,538.746,0.0
54167.0,STARLINK-5243,PAYLOAD,2024-08-20 16:33:38,15.0884057,0.0001582,53.219,34.7707,100.4708,259.6463,1.5942e-05,-3.4e-07,0.0,0 STARLINK-5243,1 54167U 22141L   24233.69003005 -.00000034  00000-0  15942-4 0  9993,2 54167  53.2190  34.7707 0001582 100.4708 259.6463 15.08840570100261,6917.879,95.438,540.838,538.649,0.0
54167.0,STARLINK-5243,PAYLOAD,2024-08-21 14:49:03,15.0883402,0.000149,53.2178,30.6065,95.1179,264.9983,5.6778e-05,6.16e-06,0.0,0 STARLINK-5243,1 54167U 22141L   24234.61739617  .00000616  00000-0  56778-4 0  9998,2 54167  53.2178  30.6065 0001490  95.1179 264.9983 15.08834020100415,6917.899,95.438,540.794,538.733,0.0
54167.0,STARLINK-5243,PAYLOAD,2024-08-21 17:59:49,15.08835439,0.0001184,53.2172,30.0119,88.7763,271.3365,7.7756e-05,9.5e-06,0.0,0 STARLINK-5243,1 54167U 22141L   24234.74987460  .00000950  00000-0  77756-4 0  9993,2 54167  53.2172  30.0119 0001184  88.7763 271.3365 15.08835439100422,6917.894,95.438,540.578,538.94,0.0
